TIANYAN 01              
1 44881U 19093C   26136.20522416 -.00000044  00000+0  11166-5 0  9995
2 44881  97.7542 209.2163 0013287 186.2229 173.8824 14.86459705346662
TIANYAN 02              
1 44882U 19093D   26136.27252300  .00005798  00000+0  41424-3 0  9993
2 44882  97.7925 230.7699 0015000 129.7847 230.4702 15.04796929347810
CBERS 4A                
1 44883U 19093E   26136.14542742  .00000552  00000+0  76537-4 0  9999
2 44883  97.7513 204.4099 0000639 330.4555  29.6622 14.81649927346339
WEILAI 1R               
1 44884U 19093F   26136.17850573  .00002290  00000+0  18696-3 0  9999
2 44884  97.7837 226.0302 0015720 134.7916 225.4589 15.00341015347629
FLORIPASAT-1            
1 44885U 19093G   26136.21746999  .00003764  00000+0  28035-3 0  9996
2 44885  97.7893 230.2248 0012176 173.8477 186.2900 15.03493897347840
SHUNTIAN                
1 44886U 19093H   26136.21650970  .00000834  00000+0  81529-4 0  9993
2 44886  97.8009 224.5462 0012073 164.0078 196.1526 14.94986539347405
ELEKTRO-L 3             
1 44903U 19095A   26136.18752153 -.00000085  00000+0  00000+0 0  9996
2 44903   0.1731  79.6333 0000992 325.9074 331.8274  1.00271068 23384
GONETS-M 14             
1 44905U 19096A   26136.25134736  .00000024  00000+0  10009-3 0  9994
2 44905  82.5198 104.4386 0012266 219.6729 140.3455 12.42869085289710
GONETS-M 15             
1 44906U 19096B   26136.28078506  .00000038  00000+0  20359-3 0  9994
2 44906  82.5217 104.8767 0013942 244.7880 115.1755 12.42870416289688
GONETS-M 16             
1 44907U 19096C   26136.30755584  .00000110  00000+0  72418-3 0  9990
2 44907  82.5164 103.8276 0009804 292.0090  67.9948 12.42891324289673
RS-44 & BREEZE-KM R/B   
1 44909U 19096E   26136.26343999  .00000035  00000+0  98328-4 0  9995
2 44909  82.5236   0.9220 0216749 218.8165 139.7198 12.79748261298269
JILIN-1 KUANFU 01       
1 45016U 20003A   26136.29185012  .00002066  00000+0  12900-3 0  9995
2 45016  97.5037 210.8728 0011044  58.2893 301.9412 15.10531305350510
XINGYUN-2 01            
1 45602U 20028A   26136.23789300  .00001706  00000+0  10399-3 0  9997
2 45602  97.4861 129.2770 0008079 324.5791  35.4902 15.11665012330015
XINGYUN-2 02            
1 45603U 20028B   26136.27712498  .00001622  00000+0  99712-4 0  9990
2 45603  97.5078 142.8324 0011919  29.6980 330.4924 15.11400083330010
HAIYANG-1D              
1 45721U 20036A   26136.29888334  .00000410  00000+0  16164-3 0  9998
2 45721  98.4543  78.6742 0001536 231.6200 128.4848 14.34162936310409
M2 PATHFINDER           
1 45727U 20037E   26136.19118212  .00001409  00000+0  10504-3 0  9996
2 45727  97.8164 327.0655 0009944 259.5431 100.4674 15.04529167320686
GAOFEN DUOMO (GFDM)     
1 45856U 20042A   26136.29589455  .00000047  00000+0  13669-4 0  9990
2 45856  97.7769 197.3391 0011128 168.4797 191.6670 14.76831136316306
ZIYUAN 3-03 (ZY 3-03)   
1 45939U 20051A   26136.15374264  .00002607  00000+0  11886-3 0  9999
2 45939  97.2852 204.9111 0007038  69.9116 290.2878 15.21490311322474
NEMO-HD                 
1 46277U 20061F   26136.11895067  .00008391  00000+0  18655-3 0  9998
2 46277  97.1941 198.4084 0002516 119.3642 240.7858 15.43908831317033
NAPA-1                  
1 46320U 20061BA  26136.14572022  .00052082  00000+0  55315-3 0  9993
2 46320  97.2492 209.3731 0001821 141.2039 218.9352 15.63910647316728
JILIN-1 GAOFEN 3E       
1 46457U 20065D   26136.31239626  .00054911  00000+0  67687-3 0  9995
2 46457  97.2290 188.2692 0009825 271.5429  88.4703 15.59977524314784
JILIN-1 GAOFEN 3F       
1 46458U 20065E   26136.28721088  .00046463  00000+0  62315-3 0  9996
2 46458  97.2242 185.7182 0011396 259.7325 100.2647 15.57750552314730
JILIN-1 GAOFEN 3G       
1 46459U 20065F   26136.30962858  .00081524  00000+0  79600-3 0  9994
2 46459  97.2316 192.0717 0012574 161.1681 199.0047 15.65833489314941
JILIN-1 GAOFEN 3H       
1 46460U 20065G   26136.09373164  .00055796  00000+0  60536-3 0  9998
2 46460  97.2262 188.3459 0009006 110.5907 249.6319 15.63301696314862
HAIYANG-2C              
1 46469U 20066A   26136.28377512 -.00000012  00000+0  62742-4 0  9994
2 46469  65.9972 294.7162 0010065 240.1344 119.8724 13.83372194285086
HJ-2A                   
1 46478U 20067A   26136.17970832  .00000404  00000+0  64992-4 0  9990
2 46478  97.8832 215.3059 0003940  32.0946 328.0503 14.76567532303534
HJ-2B                   
1 46479U 20067B   26136.21594263  .00000104  00000+0  22023-4 0  9992
2 46479  97.8894 216.3393 0001314  76.2984 283.8373 14.76512644303548
