OBJECT_NAME,OBJECT_ID,EPOCH,MEAN_MOTION,ECCENTRICITY,INCLINATION,RA_OF_ASC_NODE,ARG_OF_PERICENTER,MEAN_ANOMALY,EPHEMERIS_TYPE,CLASSIFICATION_TYPE,NORAD_CAT_ID,ELEMENT_SET_NO,REV_AT_EPOCH,BSTAR,MEAN_MOTION_DOT,MEAN_MOTION_DDOT
TIANYAN 01,2019-093C,2026-05-16T04:55:31.367424,14.86459705,.00132873,97.7542,209.2163,186.2229,173.8824,0,U,44881,999,34666,.111657E-5,-.44E-6,0
TIANYAN 02,2019-093D,2026-05-16T06:32:25.987200,15.04796929,.00150002,97.7925,230.7699,129.7847,230.4702,0,U,44882,999,34781,.41424308E-3,.5798E-4,0
CBERS 4A,2019-093E,2026-05-16T03:29:24.929088,14.81649927,.00006399,97.7513,204.4099,330.4555,29.6622,0,U,44883,999,34633,.76536905E-4,.552E-5,0
WEILAI 1R,2019-093F,2026-05-16T04:17:02.895072,15.00341015,.00157203,97.7837,226.0302,134.7916,225.4589,0,U,44884,999,34762,.18696114E-3,.229E-4,0
FLORIPASAT-1,2019-093G,2026-05-16T05:13:09.407136,15.03493897,.00121766,97.7893,230.2248,173.8477,186.2900,0,U,44885,999,34784,.28034511E-3,.3764E-4,0
SHUNTIAN,2019-093H,2026-05-16T05:11:46.438080,14.94986539,.00120737,97.8009,224.5462,164.0078,196.1526,0,U,44886,999,34740,.81528963E-4,.834E-5,0
ELEKTRO-L 3,2019-095A,2026-05-16T04:30:01.860192,1.00271068,.0000992,0.1731,79.6333,325.9074,331.8274,0,U,44903,999,2338,0,-.85E-6,0
GONETS-M 14,2019-096A,2026-05-16T06:01:56.411904,12.42869085,.00122668,82.5198,104.4386,219.6729,140.3455,0,U,44905,999,28971,.10008559E-3,.24E-6,0
GONETS-M 15,2019-096B,2026-05-16T06:44:19.829184,12.42870416,.00139422,82.5217,104.8767,244.7880,115.1755,0,U,44906,999,28968,.20358883E-3,.38E-6,0
GONETS-M 16,2019-096C,2026-05-16T07:22:52.824576,12.42891324,.00098047,82.5164,103.8276,292.0090,67.9948,0,U,44907,999,28967,.72417561E-3,.11E-5,0
RS-44 & BREEZE-KM R/B,2019-096E,2026-05-16T06:19:21.215136,12.79748261,.02167492,82.5236,0.9220,218.8165,139.7198,0,U,44909,999,29826,.98328E-4,.35E-6,0
JILIN-1 KUANFU 01,2020-003A,2026-05-16T07:00:15.850368,15.10531305,.00110448,97.5037,210.8728,58.2893,301.9412,0,U,45016,999,35051,.12900328E-3,.2066E-4,0
XINGYUN-2 01,2020-028A,2026-05-16T05:42:33.955200,15.11665012,.00080797,97.4861,129.2770,324.5791,35.4902,0,U,45602,999,33001,.10398996E-3,.1706E-4,0
XINGYUN-2 02,2020-028B,2026-05-16T06:39:03.598272,15.11400083,.00119199,97.5078,142.8324,29.6980,330.4924,0,U,45603,999,33001,.99712428E-4,.1622E-4,0
HAIYANG-1D,2020-036A,2026-05-16T07:10:23.520576,14.34162936,.00015367,98.4543,78.6742,231.6200,128.4848,0,U,45721,999,31040,.1616427E-3,.41E-5,0
M2 PATHFINDER,2020-037E,2026-05-16T04:35:18.135168,15.04529167,.00099447,97.8164,327.0655,259.5431,100.4674,0,U,45727,999,32068,.10503782E-3,.1409E-4,0
GAOFEN DUOMO (GFDM),2020-042A,2026-05-16T07:06:05.289120,14.76831136,.00111284,97.7769,197.3391,168.4797,191.6670,0,U,45856,999,31630,.13668662E-4,.47E-6,0
ZIYUAN 3-03 (ZY 3-03),2020-051A,2026-05-16T03:41:23.364096,15.21490311,.00070388,97.2852,204.9111,69.9116,290.2878,0,U,45939,999,32247,.11885943E-3,.2607E-4,0
NEMO-HD,2020-061F,2026-05-16T02:51:17.337888,15.43908831,.00025165,97.1941,198.4084,119.3642,240.7858,0,U,46277,999,31703,.18655072E-3,.8391E-4,0
NAPA-1,2020-061BA,2026-05-16T03:29:50.227008,15.63910647,.00018214,97.2492,209.3731,141.2039,218.9352,0,U,46320,999,31672,.55315135E-3,.52082E-3,0
JILIN-1 GAOFEN 3E,2020-065D,2026-05-16T07:29:51.036864,15.59977524,.00098255,97.2290,188.2692,271.5429,88.4703,0,U,46457,999,31478,.67686807E-3,.54911E-3,0
JILIN-1 GAOFEN 3F,2020-065E,2026-05-16T06:53:35.020032,15.57750552,.00113966,97.2242,185.7182,259.7325,100.2647,0,U,46458,999,31473,.62315445E-3,.46463E-3,0
JILIN-1 GAOFEN 3G,2020-065F,2026-05-16T07:25:51.909312,15.65833489,.00125748,97.2316,192.0717,161.1681,199.0047,0,U,46459,999,31494,.79600377E-3,.81524E-3,0
JILIN-1 GAOFEN 3H,2020-065G,2026-05-16T02:14:58.413696,15.63301696,.00090066,97.2262,188.3459,110.5907,249.6319,0,U,46460,999,31486,.60536051E-3,.55796E-3,0
HAIYANG-2C,2020-066A,2026-05-16T06:48:38.170368,13.83372194,.00100654,65.9972,294.7162,240.1344,119.8724,0,U,46469,999,28508,.62741782E-4,-.12E-6,0
HJ-2A,2020-067A,2026-05-16T04:18:46.798848,14.76567532,.00039403,97.8832,215.3059,32.0946,328.0503,0,U,46478,999,30353,.64992094E-4,.404E-5,0
HJ-2B,2020-067B,2026-05-16T05:10:57.443232,14.76512644,.00013148,97.8894,216.3393,76.2984,283.8373,0,U,46479,999,30354,.22023255E-4,.104E-5,0
